[{"OBJECT_NAME":"HXMT (HUIYAN)","OBJECT_ID":"2017-034A","EPOCH":"2026-04-05T07:13:51.580416","MEAN_MOTION":15.17831714,"ECCENTRICITY":0.00308105,"INCLINATION":43.0142,"RA_OF_ASC_NODE":228.6834,"ARG_OF_PERICENTER":41.1588,"MEAN_ANOMALY":319.1577,"EPHEMERIS_TYPE":0,"CLASSIFICATION_TYPE":"U","NORAD_CAT_ID":42758,"ELEMENT_SET_NO":999,"REV_AT_EPOCH":48658,"BSTAR":0.00044453684,"MEAN_MOTION_DOT":9.04e-5,"MEAN_MOTION_DDOT":0},{"OBJECT_NAME":"SAOCOM 1A","OBJECT_ID":"2018-076A","EPOCH":"2026-04-04T19:40:11.824320","MEAN_MOTION":14.82153107,"ECCENTRICITY":0.00014768,"INCLINATION":97.8896,"RA_OF_ASC_NODE":282.6237,"ARG_OF_PERICENTER":86.611,"MEAN_ANOMALY":273.5272,"EPHEMERIS_TYPE":0,"CLASSIFICATION_TYPE":"U","NORAD_CAT_ID":43641,"ELEMENT_SET_NO":999,"REV_AT_EPOCH":40523,"BSTAR":0.00018640936,"MEAN_MOTION_DOT":1.432e-5,"MEAN_MOTION_DDOT":0},{"OBJECT_NAME":"H-2A R/B","OBJECT_ID":"2018-084L","EPOCH":"2026-04-05T03:28:51.414528","MEAN_MOTION":15.42560522,"ECCENTRICITY":0.00232365,"INCLINATION":98.8681,"RA_OF_ASC_NODE":318.2074,"ARG_OF_PERICENTER":292.0652,"MEAN_ANOMALY":67.8123,"EPHEMERIS_TYPE":0,"CLASSIFICATION_TYPE":"U","NORAD_CAT_ID":43682,"ELEMENT_SET_NO":999,"REV_AT_EPOCH":40985,"BSTAR":0.00054182721,"MEAN_MOTION_DOT":0.00023691,"MEAN_MOTION_DDOT":0},{"OBJECT_NAME":"SAOCOM 1B","OBJECT_ID":"2020-059A","EPOCH":"2026-04-05T06:08:29.467968","MEAN_MOTION":14.82149925,"ECCENTRICITY":0.00014168,"INCLINATION":97.8883,"RA_OF_ASC_NODE":282.15,"ARG_OF_PERICENTER":84.2298,"MEAN_ANOMALY":275.9076,"EPHEMERIS_TYPE":0,"CLASSIFICATION_TYPE":"U","NORAD_CAT_ID":46265,"ELEMENT_SET_NO":999,"REV_AT_EPOCH":30268,"BSTAR":3.7257022e-5,"MEAN_MOTION_DOT":2.44e-6,"MEAN_MOTION_DDOT":0},{"OBJECT_NAME":"CSS (TIANHE)","OBJECT_ID":"2021-035A","EPOCH":"2026-04-05T06:15:16.552800","MEAN_MOTION":15.6193907,"ECCENTRICITY":0.0003546,"INCLINATION":41.4682,"RA_OF_ASC_NODE":46.3215,"ARG_OF_PERICENTER":128.6293,"MEAN_ANOMALY":231.4864,"EPHEMERIS_TYPE":0,"CLASSIFICATION_TYPE":"U","NORAD_CAT_ID":48274,"ELEMENT_SET_NO":999,"REV_AT_EPOCH":28176,"BSTAR":0.000389924,"MEAN_MOTION_DOT":0.00034768,"MEAN_MOTION_DDOT":0},{"OBJECT_NAME":"COSMOS 2550","OBJECT_ID":"2021-056A","EPOCH":"2026-04-04T09:42:48.621024","MEAN_MOTION":15.338373,"ECCENTRICITY":0.00084309,"INCLINATION":67.1431,"RA_OF_ASC_NODE":323.0974,"ARG_OF_PERICENTER":269.6767,"MEAN_ANOMALY":90.3422,"EPHEMERIS_TYPE":0,"CLASSIFICATION_TYPE":"U","NORAD_CAT_ID":48865,"ELEMENT_SET_NO":999,"REV_AT_EPOCH":26740,"BSTAR":9.1325794e-5,"MEAN_MOTION_DOT":2.815e-5,"MEAN_MOTION_DDOT":0},{"OBJECT_NAME":"CZ-2C R/B","OBJECT_ID":"2022-058K","EPOCH":"2026-04-05T05:46:49.569600","MEAN_MOTION":15.56391738,"ECCENTRICITY":0.00411058,"INCLINATION":50.1867,"RA_OF_ASC_NODE":181.5046,"ARG_OF_PERICENTER":314.8441,"MEAN_ANOMALY":44.9194,"EPHEMERIS_TYPE":0,"CLASSIFICATION_TYPE":"U","NORAD_CAT_ID":52794,"ELEMENT_SET_NO":999,"REV_AT_EPOCH":21426,"BSTAR":0.00059341848,"MEAN_MOTION_DOT":0.00044151,"MEAN_MOTION_DDOT":0},{"OBJECT_NAME":"CZ-2C R/B","OBJECT_ID":"2022-132E","EPOCH":"2026-04-04T22:32:57.847488","MEAN_MOTION":15.64475351,"ECCENTRICITY":0.00156959,"INCLINATION":97.2955,"RA_OF_ASC_NODE":99.1025,"ARG_OF_PERICENTER":2.6224,"MEAN_ANOMALY":357.5115,"EPHEMERIS_TYPE":0,"CLASSIFICATION_TYPE":"U","NORAD_CAT_ID":54039,"ELEMENT_SET_NO":999,"REV_AT_EPOCH":19447,"BSTAR":0.00051974611,"MEAN_MOTION_DOT":0.00050326,"MEAN_MOTION_DDOT":0},{"OBJECT_NAME":"GSLV R/B","OBJECT_ID":"2022-138AN","EPOCH":"2026-04-05T04:39:28.056672","MEAN_MOTION":14.96953742,"ECCENTRICITY":0.00236088,"INCLINATION":87.3847,"RA_OF_ASC_NODE":157.4876,"ARG_OF_PERICENTER":59.5844,"MEAN_ANOMALY":300.7716,"EPHEMERIS_TYPE":0,"CLASSIFICATION_TYPE":"U","NORAD_CAT_ID":54149,"ELEMENT_SET_NO":999,"REV_AT_EPOCH":18789,"BSTAR":0.00031994071,"MEAN_MOTION_DOT":3.724e-5,"MEAN_MOTION_DDOT":0},{"OBJECT_NAME":"XRISM","OBJECT_ID":"2023-137A","EPOCH":"2026-04-05T07:36:15.887520","MEAN_MOTION":15.11832006,"ECCENTRICITY":0.00078239,"INCLINATION":31.0012,"RA_OF_ASC_NODE":111.3941,"ARG_OF_PERICENTER":306.0861,"MEAN_ANOMALY":53.9053,"EPHEMERIS_TYPE":0,"CLASSIFICATION_TYPE":"U","NORAD_CAT_ID":57800,"ELEMENT_SET_NO":999,"REV_AT_EPOCH":14182,"BSTAR":0.00037480424,"MEAN_MOTION_DOT":6.668e-5,"MEAN_MOTION_DDOT":0},{"OBJECT_NAME":"ACS3","OBJECT_ID":"2024-077B","EPOCH":"2026-04-04T18:25:45.311520","MEAN_MOTION":13.90931246,"ECCENTRICITY":0.00733591,"INCLINATION":97.1949,"RA_OF_ASC_NODE":30.0195,"ARG_OF_PERICENTER":18.026,"MEAN_ANOMALY":342.3481,"EPHEMERIS_TYPE":0,"CLASSIFICATION_TYPE":"U","NORAD_CAT_ID":59588,"ELEMENT_SET_NO":999,"REV_AT_EPOCH":9782,"BSTAR":0.031621755,"MEAN_MOTION_DOT":0.00040672,"MEAN_MOTION_DDOT":0},{"OBJECT_NAME":"HTV-X1","OBJECT_ID":"2025-241A","EPOCH":"2026-04-05T04:35:35.039328","MEAN_MOTION":15.32544764,"ECCENTRICITY":0.00073689,"INCLINATION":51.6362,"RA_OF_ASC_NODE":305.3144,"ARG_OF_PERICENTER":275.0923,"MEAN_ANOMALY":84.9217,"EPHEMERIS_TYPE":0,"CLASSIFICATION_TYPE":"U","NORAD_CAT_ID":66174,"ELEMENT_SET_NO":999,"REV_AT_EPOCH":2500,"BSTAR":0.0002335001,"MEAN_MOTION_DOT":7.088e-5,"MEAN_MOTION_DDOT":0},{"OBJECT_NAME":"SZ-21 MODULE","OBJECT_ID":"2025-246C","EPOCH":"2026-04-05T05:22:30.662400","MEAN_MOTION":15.70779178,"ECCENTRICITY":0.00034436,"INCLINATION":41.475,"RA_OF_ASC_NODE":39.7632,"ARG_OF_PERICENTER":230.9448,"MEAN_ANOMALY":129.1088,"EPHEMERIS_TYPE":0,"CLASSIFICATION_TYPE":"U","NORAD_CAT_ID":66515,"ELEMENT_SET_NO":999,"REV_AT_EPOCH":2224,"BSTAR":0.00040161545,"MEAN_MOTION_DOT":0.00051413,"MEAN_MOTION_DDOT":0}]
